[{"OBJECT_NAME":"STARLINK-5484","OBJECT_ID":"2023-021A","EPOCH":"2025-12-11T06:47:37.754304","MEAN_MOTION":14.98335821,"ECCENTRICITY":0.00029518,"INCLINATION":70.0005,"RA_OF_ASC_NODE":67.4477,"ARG_OF_PERICENTER":266.6684,"MEAN_ANOMALY":93.4138,"EPHEMERIS_TYPE":0,"CLASSIFICATION_TYPE":"U","NORAD_CAT_ID":55628,"ELEMENT_SET_NO":999,"REV_AT_EPOCH":15505,"BSTAR":5.0653278e-5,"MEAN_MOTION_DOT":5.12e-6,"MEAN_MOTION_DDOT":0},{"OBJECT_NAME":"STARLINK-5497","OBJECT_ID":"2023-021B","EPOCH":"2025-12-11T06:53:38.622912","MEAN_MOTION":14.98336445,"ECCENTRICITY":0.00029237,"INCLINATION":70.0004,"RA_OF_ASC_NODE":67.4631,"ARG_OF_PERICENTER":267.687,"MEAN_ANOMALY":92.3954,"EPHEMERIS_TYPE":0,"CLASSIFICATION_TYPE":"U","NORAD_CAT_ID":55629,"ELEMENT_SET_NO":999,"REV_AT_EPOCH":15505,"BSTAR":5.531691e-5,"MEAN_MOTION_DOT":5.67e-6,"MEAN_MOTION_DDOT":0},{"OBJECT_NAME":"STARLINK-5303","OBJECT_ID":"2023-021C","EPOCH":"2025-12-11T06:41:37.196736","MEAN_MOTION":14.98335204,"ECCENTRICITY":0.00027088,"INCLINATION":70.001,"RA_OF_ASC_NODE":67.4325,"ARG_OF_PERICENTER":259.105,"MEAN_ANOMALY":100.9805,"EPHEMERIS_TYPE":0,"CLASSIFICATION_TYPE":"U","NORAD_CAT_ID":55630,"ELEMENT_SET_NO":999,"REV_AT_EPOCH":15505,"BSTAR":5.594404e-5,"MEAN_MOTION_DOT":5.75e-6,"MEAN_MOTION_DDOT":0},{"OBJECT_NAME":"STARLINK-5558","OBJECT_ID":"2023-021D","EPOCH":"2025-12-11T06:05:33.528192","MEAN_MOTION":14.98333141,"ECCENTRICITY":0.0002757,"INCLINATION":70.0016,"RA_OF_ASC_NODE":67.3444,"ARG_OF_PERICENTER":265.0098,"MEAN_ANOMALY":95.0747,"EPHEMERIS_TYPE":0,"CLASSIFICATION_TYPE":"U","NORAD_CAT_ID":55631,"ELEMENT_SET_NO":999,"REV_AT_EPOCH":15505,"BSTAR":0.00010283176,"MEAN_MOTION_DOT":1.134e-5,"MEAN_MOTION_DDOT":0},{"OBJECT_NAME":"STARLINK-5546","OBJECT_ID":"2023-021E","EPOCH":"2025-12-11T06:29:36.117888","MEAN_MOTION":14.98330416,"ECCENTRICITY":0.00028576,"INCLINATION":69.9999,"RA_OF_ASC_NODE":67.4012,"ARG_OF_PERICENTER":271.2407,"MEAN_ANOMALY":88.8425,"EPHEMERIS_TYPE":0,"CLASSIFICATION_TYPE":"U","NORAD_CAT_ID":55632,"ELEMENT_SET_NO":999,"REV_AT_EPOCH":15505,"BSTAR":6.9722913e-5,"MEAN_MOTION_DOT":7.39e-6,"MEAN_MOTION_DDOT":0},{"OBJECT_NAME":"STARLINK-5498","OBJECT_ID":"2023-021F","EPOCH":"2025-12-11T06:23:35.518848","MEAN_MOTION":14.98333222,"ECCENTRICITY":0.00028985,"INCLINATION":70.0004,"RA_OF_ASC_NODE":67.3871,"ARG_OF_PERICENTER":267.1835,"MEAN_ANOMALY":92.8992,"EPHEMERIS_TYPE":0,"CLASSIFICATION_TYPE":"U","NORAD_CAT_ID":55633,"ELEMENT_SET_NO":999,"REV_AT_EPOCH":15505,"BSTAR":1.3683292e-5,"MEAN_MOTION_DOT":7.0e-7,"MEAN_MOTION_DDOT":0},{"OBJECT_NAME":"STARLINK-5500","OBJECT_ID":"2023-021G","EPOCH":"2025-12-11T06:29:50.001504","MEAN_MOTION":14.98342394,"ECCENTRICITY":0.00032485,"INCLINATION":70.0002,"RA_OF_ASC_NODE":67.4034,"ARG_OF_PERICENTER":271.5639,"MEAN_ANOMALY":88.5148,"EPHEMERIS_TYPE":0,"CLASSIFICATION_TYPE":"U","NORAD_CAT_ID":55634,"ELEMENT_SET_NO":999,"REV_AT_EPOCH":15505,"BSTAR":-0.00010912515,"MEAN_MOTION_DOT":-1.395e-5,"MEAN_MOTION_DDOT":0},{"OBJECT_NAME":"STARLINK-5495","OBJECT_ID":"2023-021H","EPOCH":"2025-12-11T05:59:13.751808","MEAN_MOTION":14.98332638,"ECCENTRICITY":0.00032352,"INCLINATION":70.0001,"RA_OF_ASC_NODE":47.4618,"ARG_OF_PERICENTER":271.6456,"MEAN_ANOMALY":88.4333,"EPHEMERIS_TYPE":0,"CLASSIFICATION_TYPE":"U","NORAD_CAT_ID":55635,"ELEMENT_SET_NO":999,"REV_AT_EPOCH":15554,"BSTAR":1.7686829e-5,"MEAN_MOTION_DOT":1.18e-6,"MEAN_MOTION_DDOT":0},{"OBJECT_NAME":"STARLINK-5218","OBJECT_ID":"2023-021J","EPOCH":"2025-12-11T06:11:34.310400","MEAN_MOTION":14.98297353,"ECCENTRICITY":0.00028148,"INCLINATION":70.0006,"RA_OF_ASC_NODE":67.3571,"ARG_OF_PERICENTER":268.5472,"MEAN_ANOMALY":91.5365,"EPHEMERIS_TYPE":0,"CLASSIFICATION_TYPE":"U","NORAD_CAT_ID":55636,"ELEMENT_SET_NO":999,"REV_AT_EPOCH":15505,"BSTAR":0.00060900194,"MEAN_MOTION_DOT":7.175e-5,"MEAN_MOTION_DDOT":0},{"OBJECT_NAME":"STARLINK-5062","OBJECT_ID":"2023-021K","EPOCH":"2025-12-11T06:23:16.364832","MEAN_MOTION":14.9832897,"ECCENTRICITY":0.00030319,"INCLINATION":70.0007,"RA_OF_ASC_NODE":47.5166,"ARG_OF_PERICENTER":271.6182,"MEAN_ANOMALY":88.4629,"EPHEMERIS_TYPE":0,"CLASSIFICATION_TYPE":"U","NORAD_CAT_ID":55637,"ELEMENT_SET_NO":999,"REV_AT_EPOCH":15554,"BSTAR":7.9231159e-5,"MEAN_MOTION_DOT":8.52e-6,"MEAN_MOTION_DDOT":0},{"OBJECT_NAME":"STARLINK-5507","OBJECT_ID":"2023-021L","EPOCH":"2025-12-11T06:17:34.899072","MEAN_MOTION":14.98330357,"ECCENTRICITY":0.00026288,"INCLINATION":70.0016,"RA_OF_ASC_NODE":67.3744,"ARG_OF_PERICENTER":264.694,"MEAN_ANOMALY":95.3919,"EPHEMERIS_TYPE":0,"CLASSIFICATION_TYPE":"U","NORAD_CAT_ID":55638,"ELEMENT_SET_NO":999,"REV_AT_EPOCH":15505,"BSTAR":-3.730636e-6,"MEAN_MOTION_DOT":-1.37e-6,"MEAN_MOTION_DDOT":0},{"OBJECT_NAME":"STARLINK-5508","OBJECT_ID":"2023-021M","EPOCH":"2025-12-11T07:29:35.167776","MEAN_MOTION":14.98329935,"ECCENTRICITY":0.00032226,"INCLINATION":69.9998,"RA_OF_ASC_NODE":47.2761,"ARG_OF_PERICENTER":270.6216,"MEAN_ANOMALY":89.4574,"EPHEMERIS_TYPE":0,"CLASSIFICATION_TYPE":"U","NORAD_CAT_ID":55639,"ELEMENT_SET_NO":999,"REV_AT_EPOCH":15555,"BSTAR":-6.0859865e-5,"MEAN_MOTION_DOT":-8.19e-6,"MEAN_MOTION_DDOT":0},{"OBJECT_NAME":"STARLINK-5069","OBJECT_ID":"2023-021N","EPOCH":"2025-12-11T07:23:20.312736","MEAN_MOTION":14.98333239,"ECCENTRICITY":0.00033464,"INCLINATION":70.0011,"RA_OF_ASC_NODE":47.2597,"ARG_OF_PERICENTER":270.4236,"MEAN_ANOMALY":89.6539,"EPHEMERIS_TYPE":0,"CLASSIFICATION_TYPE":"U","NORAD_CAT_ID":55640,"ELEMENT_SET_NO":999,"REV_AT_EPOCH":15555,"BSTAR":-1.5138557e-5,"MEAN_MOTION_DOT":-2.74e-6,"MEAN_MOTION_DDOT":0},{"OBJECT_NAME":"STARLINK-5065","OBJECT_ID":"2023-021P","EPOCH":"2025-12-11T06:29:16.870560","MEAN_MOTION":14.98333078,"ECCENTRICITY":0.00030208,"INCLINATION":70.0009,"RA_OF_ASC_NODE":47.5287,"ARG_OF_PERICENTER":271.1745,"MEAN_ANOMALY":88.9068,"EPHEMERIS_TYPE":0,"CLASSIFICATION_TYPE":"U","NORAD_CAT_ID":55641,"ELEMENT_SET_NO":999,"REV_AT_EPOCH":15554,"BSTAR":5.2977309e-5,"MEAN_MOTION_DOT":5.39e-6,"MEAN_MOTION_DDOT":0},{"OBJECT_NAME":"STARLINK-5483","OBJECT_ID":"2023-021R","EPOCH":"2025-12-11T06:41:17.979648","MEAN_MOTION":14.98332258,"ECCENTRICITY":0.00036867,"INCLINATION":70.0006,"RA_OF_ASC_NODE":47.5534,"ARG_OF_PERICENTER":270.3855,"MEAN_ANOMALY":89.6881,"EPHEMERIS_TYPE":0,"CLASSIFICATION_TYPE":"U","NORAD_CAT_ID":55643,"ELEMENT_SET_NO":999,"REV_AT_EPOCH":15554,"BSTAR":-1.6716572e-5,"MEAN_MOTION_DOT":-2.93e-6,"MEAN_MOTION_DDOT":0},{"OBJECT_NAME":"STARLINK-5502","OBJECT_ID":"2023-021S","EPOCH":"2025-12-11T06:11:14.904096","MEAN_MOTION":14.98334491,"ECCENTRICITY":0.00029137,"INCLINATION":70.0009,"RA_OF_ASC_NODE":47.4873,"ARG_OF_PERICENTER":271.123,"MEAN_ANOMALY":88.9595,"EPHEMERIS_TYPE":0,"CLASSIFICATION_TYPE":"U","NORAD_CAT_ID":55644,"ELEMENT_SET_NO":999,"REV_AT_EPOCH":15554,"BSTAR":-4.938537e-6,"MEAN_MOTION_DOT":-1.52e-6,"MEAN_MOTION_DDOT":0},{"OBJECT_NAME":"STARLINK-5510","OBJECT_ID":"2023-021V","EPOCH":"2025-12-11T06:59:19.063968","MEAN_MOTION":14.98331389,"ECCENTRICITY":0.00026151,"INCLINATION":70.0009,"RA_OF_ASC_NODE":47.2015,"ARG_OF_PERICENTER":268.6127,"MEAN_ANOMALY":91.4733,"EPHEMERIS_TYPE":0,"CLASSIFICATION_TYPE":"U","NORAD_CAT_ID":55647,"ELEMENT_SET_NO":999,"REV_AT_EPOCH":15555,"BSTAR":3.9707425e-5,"MEAN_MOTION_DOT":3.81e-6,"MEAN_MOTION_DDOT":0},{"OBJECT_NAME":"STARLINK-5501","OBJECT_ID":"2023-021W","EPOCH":"2025-12-11T06:05:14.668800","MEAN_MOTION":14.9833181,"ECCENTRICITY":0.00034138,"INCLINATION":70.0003,"RA_OF_ASC_NODE":47.474,"ARG_OF_PERICENTER":270.0346,"MEAN_ANOMALY":90.0422,"EPHEMERIS_TYPE":0,"CLASSIFICATION_TYPE":"U","NORAD_CAT_ID":55648,"ELEMENT_SET_NO":999,"REV_AT_EPOCH":15554,"BSTAR":0.00020336767,"MEAN_MOTION_DOT":2.334e-5,"MEAN_MOTION_DDOT":0},{"OBJECT_NAME":"STARLINK-5469","OBJECT_ID":"2023-021X","EPOCH":"2025-12-11T07:11:20.350176","MEAN_MOTION":14.98316661,"ECCENTRICITY":0.00037762,"INCLINATION":70.0002,"RA_OF_ASC_NODE":47.2313,"ARG_OF_PERICENTER":277.8662,"MEAN_ANOMALY":82.2069,"EPHEMERIS_TYPE":0,"CLASSIFICATION_TYPE":"U","NORAD_CAT_ID":55649,"ELEMENT_SET_NO":999,"REV_AT_EPOCH":15555,"BSTAR":-0.00010034853,"MEAN_MOTION_DOT":-1.29e-5,"MEAN_MOTION_DDOT":0},{"OBJECT_NAME":"STARLINK-5494","OBJECT_ID":"2023-021Y","EPOCH":"2025-12-11T07:29:21.035328","MEAN_MOTION":14.98331633,"ECCENTRICITY":0.00030638,"INCLINATION":69.9999,"RA_OF_ASC_NODE":47.2738,"ARG_OF_PERICENTER":267.9989,"MEAN_ANOMALY":92.0819,"EPHEMERIS_TYPE":0,"CLASSIFICATION_TYPE":"U","NORAD_CAT_ID":55650,"ELEMENT_SET_NO":999,"REV_AT_EPOCH":15555,"BSTAR":6.1246936e-5,"MEAN_MOTION_DOT":6.38e-6,"MEAN_MOTION_DDOT":0},{"OBJECT_NAME":"STARLINK-5506","OBJECT_ID":"2023-021Z","EPOCH":"2025-12-11T06:17:15.866880","MEAN_MOTION":14.98328619,"ECCENTRICITY":0.00030899,"INCLINATION":70.0007,"RA_OF_ASC_NODE":47.5028,"ARG_OF_PERICENTER":270.7011,"MEAN_ANOMALY":89.3794,"EPHEMERIS_TYPE":0,"CLASSIFICATION_TYPE":"U","NORAD_CAT_ID":55651,"ELEMENT_SET_NO":999,"REV_AT_EPOCH":15554,"BSTAR":2.1265648e-5,"MEAN_MOTION_DOT":1.61e-6,"MEAN_MOTION_DDOT":0},{"OBJECT_NAME":"STARLINK-5487","OBJECT_ID":"2023-021AA","EPOCH":"2025-12-11T07:17:18.477312","MEAN_MOTION":14.98353175,"ECCENTRICITY":0.00028079,"INCLINATION":70.0016,"RA_OF_ASC_NODE":47.2476,"ARG_OF_PERICENTER":273.9058,"MEAN_ANOMALY":86.178,"EPHEMERIS_TYPE":0,"CLASSIFICATION_TYPE":"U","NORAD_CAT_ID":55652,"ELEMENT_SET_NO":999,"REV_AT_EPOCH":15555,"BSTAR":0.00027273841,"MEAN_MOTION_DOT":3.165e-5,"MEAN_MOTION_DDOT":0},{"OBJECT_NAME":"STARLINK-5067","OBJECT_ID":"2023-021AB","EPOCH":"2025-12-11T06:53:16.339488","MEAN_MOTION":14.98335538,"ECCENTRICITY":0.00031363,"INCLINATION":70.0023,"RA_OF_ASC_NODE":47.1843,"ARG_OF_PERICENTER":259.2322,"MEAN_ANOMALY":100.8484,"EPHEMERIS_TYPE":0,"CLASSIFICATION_TYPE":"U","NORAD_CAT_ID":55653,"ELEMENT_SET_NO":999,"REV_AT_EPOCH":15555,"BSTAR":-0.00032869993,"MEAN_MOTION_DOT":-4.013e-5,"MEAN_MOTION_DDOT":0}]
